{
  "type": "FeatureCollection",
  "features": [
    {
      "type": "Feature",
      "properties": {
        "name": "São Paulo"
      },
      "geometry": {
        "type": "Point",
        "coordinates": [
          -46.6333824,
          -23.5506507
        ]
      }
    },
    {
      "type": "Feature",
      "properties": {
        "name": "Rio de Janeiro"
      },
      "geometry": {
        "type": "Point",
        "coordinates": [
          -43.2093727,
          -22.9110137
        ]
      }
    },
    {
      "type": "Feature",
      "properties": {
        "name": "Belo Horizonte"
      },
      "geometry": {
        "type": "Point",
        "coordinates": [
          -43.9450948,
          -19.9227318
        ]
      }
    },
    {
      "type": "Feature",
      "properties": {
        "name": "Brasília"
      },
      "geometry": {
        "type": "Point",
        "coordinates": [
          -53.2,
          -10.3333333
        ]
      }
    },
    {
      "type": "Feature",
      "properties": {
        "name": "Salvador"
      },
      "geometry": {
        "type": "Point",
        "coordinates": [
          -38.4812772,
          -12.9822499
        ]
      }
    }
  ]
}